OBJECT_NAME,OBJECT_ID,EPOCH,MEAN_MOTION,ECCENTRICITY,INCLINATION,RA_OF_ASC_NODE,ARG_OF_PERICENTER,MEAN_ANOMALY,EPHEMERIS_TYPE,CLASSIFICATION_TYPE,NORAD_CAT_ID,ELEMENT_SET_NO,REV_AT_EPOCH,BSTAR,MEAN_MOTION_DOT,MEAN_MOTION_DDOT
SL-3 R/B,1983-075B,2024-07-07T21:35:06.697248,15.21913611,.0029639,97.5696,169.3231,223.3088,136.5818,0,U,14208,999,23717,.28651E-3,.653E-4,0
COSMOS 1500,1983-099A,2024-07-07T19:48:48.437568,15.41065084,.0008866,82.5084,299.6421,74.2597,285.9626,0,U,14372,999,22976,.48217E-3,.20003E-3,0
COSMOS 1536,1984-013A,2024-07-07T21:07:30.290880,15.12979143,.0016901,82.5502,349.0558,246.5591,113.3863,0,U,14699,999,20121,.23706E-3,.4224E-4,0
COSMOS 1544,1984-027A,2024-07-07T18:16:51.563424,16.00843828,.0009792,82.4559,284.1189,243.3026,116.7250,0,U,14819,999,21089,.78104E-3,.417374E-2,.73676E-4
SL-14 R/B,1984-027B,2024-07-07T06:55:29.740224,14.84819488,.0017999,82.5425,97.0241,188.9471,171.1427,0,U,14820,999,15701,.69321E-4,.614E-5,0
SL-8 R/B,1985-006B,2024-07-07T14:44:21.512832,14.37090313,.0018643,74.0471,303.1955,5.8776,94.3819,0,U,15483,999,6636,.1246E-3,.344E-5,0
COSMOS 1626,1985-009A,2024-07-07T09:14:16.028736,15.55566803,.0003663,82.4645,169.1559,97.0477,263.1193,0,U,15494,999,16196,.48932E-3,.33611E-3,0
SL-12 R/B(2),1985-042D,2024-07-07T17:58:01.162848,14.21643538,.0035642,71.1090,296.0641,351.5603,119.9949,0,U,15772,999,2769,.38111E-4,.37E-6,0
SL-14 R/B,1985-069B,2024-07-07T15:47:02.591232,14.85253480,.0020435,82.5262,238.1150,55.1626,305.1508,0,U,15945,999,10334,.66939E-4,.601E-5,0
SL-16 R/B,1985-097B,2024-07-07T10:36:01.567584,14.16429920,.0005435,71.0037,345.1588,113.7960,312.9748,0,U,16182,999,81,-.78367E-4,-.204E-5,0
SL-14 R/B,1986-006B,2024-07-08T05:20:49.534656,14.85348583,.0018414,82.5253,112.7127,192.1157,332.3832,0,U,16496,999,7977,.74758E-4,.669E-5,0
COSMOS 1743,1986-034A,2024-07-07T19:43:03.328320,15.28459108,.000866,82.5472,337.0424,323.6092,36.4558,0,U,16719,999,8659,.34656E-3,.9641E-4,0
SL-14 R/B,1986-046B,2024-07-07T18:46:46.724736,14.84436542,.0025115,82.4833,295.9060,83.1073,277.2999,0,U,16792,999,5700,.84653E-4,.74E-5,0
SL-14 R/B,1986-055B,2024-07-07T10:58:45.426144,14.84457127,.0019167,82.5217,339.7887,185.2743,235.3229,0,U,16882,999,2879,.8553E-4,.746E-5,0
AJISAI (EGS),1986-061A,2024-07-08T04:44:40.269984,12.44506483,.0011251,50.0066,167.5059,175.8210,315.8664,0,U,16908,999,39245,-.17899E-3,-.123E-5,0
COSMOS 1812,1987-003A,2024-07-07T19:44:27.136320,15.32610233,.0004151,82.5080,115.6960,121.6585,238.5062,0,U,17295,999,4995,.41508E-3,.13108E-3,0
SL-14 R/B,1987-024B,2024-07-07T20:01:18.242688,14.84968338,.0020025,82.5298,305.3880,117.1121,243.2140,0,U,17567,999,1873,.90748E-4,.8E-5,0
COSMOS 1833,1987-027A,2024-07-07T08:31:05.185632,14.12953441,.0020369,70.9129,168.8490,40.7806,319.4834,0,U,17589,999,92409,.11374E-4,-.27E-6,0
SL-16 R/B,1987-027B,2024-07-07T19:29:45.350880,14.16983988,.0006474,71.0032,121.4944,313.7361,46.3226,0,U,17590,999,92921,-.64945E-4,-.178E-5,0
SL-14 R/B,1987-038B,2024-07-07T09:14:17.183040,14.84221628,.0020349,82.5023,151.2405,25.0022,335.2174,0,U,17912,999,98866,.84907E-4,.737E-5,0
COSMOS 1844,1987-041A,2024-07-07T14:06:00.138240,14.14338914,.0032437,70.8986,240.8431,222.0991,137.7638,0,U,17973,999,91731,.5063E-4,.49E-6,0
SL-14 R/B,1987-055B,2024-07-07T09:37:26.614272,14.84474662,.0019949,82.4986,203.8389,227.0344,132.9200,0,U,18153,999,97936,.61138E-4,.54E-5,0
COSMOS 1867,1987-060A,2024-07-08T05:11:55.822848,14.31312308,.0021016,65.0088,213.3196,270.7620,89.1056,0,U,18187,999,93292,.27396E-4,-.27E-6,0
COSMOS 1892,1987-088A,2024-07-07T14:51:27.716256,15.35307455,.0008416,82.4904,236.8288,279.7610,80.2683,0,U,18421,999,1002,.39395E-3,.13558E-3,0
SL-14 R/B,1988-001B,2024-07-07T08:34:18.776928,14.84387389,.0019947,82.5128,49.0840,95.0440,265.3053,0,U,18749,999,95143,.67452E-4,.593E-5,0
COSMOS 1933,1988-020A,2024-07-08T04:14:48.437664,15.10173342,.0006511,82.5184,130.6123,129.1442,231.0367,0,U,18958,999,97918,.30799E-3,.5056E-4,0
SL-3 R/B,1988-032B,2024-07-07T20:43:51.199392,15.10251204,.0031723,97.4495,171.0775,184.0593,176.0384,0,U,19046,999,96002,.21657E-3,.352E-4,0
SL-16 R/B,1988-039B,2024-07-07T16:03:38.217312,14.19422424,.0022623,71.0150,278.2696,201.2537,158.7650,0,U,19120,999,87208,-.20254E-5,-.52E-6,0
COSMOS 1953,1988-050A,2024-07-07T17:19:28.967520,15.15450448,.0015972,82.5131,46.2325,98.4293,261.8750,0,U,19210,999,96610,.29635E-3,.565E-4,0
SL-8 R/B,1988-053B,2024-07-08T05:35:07.504800,14.38214955,.001927,74.0469,155.3151,129.9769,331.8076,0,U,19257,999,88923,.10858E-3,.304E-5,0
COSMOS 1975,1988-093A,2024-07-07T10:20:48.969312,15.14719462,.0015561,82.5260,4.2204,145.3191,214.9059,0,U,19573,999,92658,.36525E-3,.6814E-4,0
