AJISAI (EGS)            
1 16908U 86061A   24190.19768831 -.00000123  00000+0 -17899-3 0  9998
2 16908  50.0066 167.5059 0011251 175.8210 315.8664 12.44506483392453
SL-3 R/B                
1 14208U 83075B   24189.89938307  .00006530  00000+0  28651-3 0  9997
2 14208  97.5696 169.3231 0029639 223.3088 136.5818 15.21913611237171
COSMOS 1500             
1 14372U 83099A   24189.82556062  .00020003  00000+0  48217-3 0  9993
2 14372  82.5084 299.6421 0008866  74.2597 285.9626 15.41065084229769
COSMOS 1536             
1 14699U 84013A   24189.88021170  .00004224  00000+0  23706-3 0  9998
2 14699  82.5502 349.0558 0016901 246.5591 113.3863 15.12979143201219
COSMOS 1544             
1 14819U 84027A   24189.76170791  .00417374  73676-4  78104-3 0  9998
2 14819  82.4559 284.1189 0009792 243.3026 116.7250 16.00843828210890
SL-14 R/B               
1 14820U 84027B   24189.28853866  .00000614  00000+0  69321-4 0  9991
2 14820  82.5425  97.0241 0017999 188.9471 171.1427 14.84819488157011
SL-8 R/B                
1 15483U 85006B   24189.61413788  .00000344  00000+0  12460-3 0  9998
2 15483  74.0471 303.1955 0018643   5.8776  94.3819 14.37090313 66363
COSMOS 1626             
1 15494U 85009A   24189.38490774  .00033611  00000+0  48932-3 0  9993
2 15494  82.4645 169.1559 0003663  97.0477 263.1193 15.55566803161964
SL-12 R/B(2)            
1 15772U 85042D   24189.74862457  .00000037  00000+0  38111-4 0  9995
2 15772  71.1090 296.0641 0035642 351.5603 119.9949 14.21643538 27696
SL-14 R/B               
1 15945U 85069B   24189.65766888  .00000601  00000+0  66939-4 0  9993
2 15945  82.5262 238.1150 0020435  55.1626 305.1508 14.85253480103343
SL-16 R/B               
1 16182U 85097B   24189.44168481 -.00000204  00000+0 -78367-4 0  9999
2 16182  71.0037 345.1588 0005435 113.7960 312.9748 14.16429920   817
SL-14 R/B               
1 16496U 86006B   24190.22279554  .00000669  00000+0  74758-4 0  9993
2 16496  82.5253 112.7127 0018414 192.1157 332.3832 14.85348583 79771
COSMOS 1743             
1 16719U 86034A   24189.82156630  .00009641  00000+0  34656-3 0  9996
2 16719  82.5472 337.0424 0008660 323.6092  36.4558 15.28459108 86594
SL-14 R/B               
1 16792U 86046B   24189.78248524  .00000740  00000+0  84653-4 0  9993
2 16792  82.4833 295.9060 0025115  83.1073 277.2999 14.84436542 57000
SL-14 R/B               
1 16882U 86055B   24189.45747021  .00000746  00000+0  85530-4 0  9994
2 16882  82.5217 339.7887 0019167 185.2743 235.3229 14.84457127 28796
COSMOS 1812             
1 17295U 87003A   24189.82253630  .00013108  00000+0  41508-3 0  9998
2 17295  82.5080 115.6960 0004151 121.6585 238.5062 15.32610233 49955
SL-14 R/B               
1 17567U 87024B   24189.83423892  .00000800  00000+0  90748-4 0  9999
2 17567  82.5298 305.3880 0020025 117.1121 243.2140 14.84968338 18731
COSMOS 1833             
1 17589U 87027A   24189.35492113 -.00000027  00000+0  11374-4 0  9995
2 17589  70.9129 168.8490 0020369  40.7806 319.4834 14.12953441924091
SL-16 R/B               
1 17590U 87027B   24189.81233045 -.00000178  00000+0 -64945-4 0  9995
2 17590  71.0032 121.4944 0006474 313.7361  46.3226 14.16983988929210
SL-14 R/B               
1 17912U 87038B   24189.38492110  .00000737  00000+0  84907-4 0  9996
2 17912  82.5023 151.2405 0020349  25.0022 335.2174 14.84221628988669
COSMOS 1844             
1 17973U 87041A   24189.58750160  .00000049  00000+0  50630-4 0  9993
2 17973  70.8986 240.8431 0032437 222.0991 137.7638 14.14338914917317
SL-14 R/B               
1 18153U 87055B   24189.40100248  .00000540  00000+0  61138-4 0  9997
2 18153  82.4986 203.8389 0019949 227.0344 132.9200 14.84474662979361
COSMOS 1867             
1 18187U 87060A   24190.21661832 -.00000027  00000+0  27396-4 0  9991
2 18187  65.0088 213.3196 0021016 270.7620  89.1056 14.31312308932923
COSMOS 1892             
1 18421U 87088A   24189.61907079  .00013558  00000+0  39395-3 0  9993
2 18421  82.4904 236.8288 0008416 279.7610  80.2683 15.35307455 10021
SL-14 R/B               
1 18749U 88001B   24189.35716177  .00000593  00000+0  67452-4 0  9991
2 18749  82.5128  49.0840 0019947  95.0440 265.3053 14.84387389951435
COSMOS 1933             
1 18958U 88020A   24190.17694951  .00005056  00000+0  30799-3 0  9993
2 18958  82.5184 130.6123 0006511 129.1442 231.0367 15.10173342979186
SL-3 R/B                
1 19046U 88032B   24189.86378703  .00003520  00000+0  21657-3 0  9990
2 19046  97.4495 171.0775 0031723 184.0593 176.0384 15.10251204960021
SL-16 R/B               
1 19120U 88039B   24189.66919233 -.00000052  00000+0 -20254-5 0  9990
2 19120  71.0150 278.2696 0022623 201.2537 158.7650 14.19422424872084
COSMOS 1953             
1 19210U 88050A   24189.72186305  .00005650  00000+0  29635-3 0  9993
2 19210  82.5131  46.2325 0015972  98.4293 261.8750 15.15450448966104
SL-8 R/B                
1 19257U 88053B   24190.23272575  .00000304  00000+0  10858-3 0  9998
2 19257  74.0469 155.3151 0019270 129.9769 331.8076 14.38214955889239
COSMOS 1975             
1 19573U 88093A   24189.43112233  .00006814  00000+0  36525-3 0  9998
2 19573  82.5260   4.2204 0015561 145.3191 214.9059 15.14719462926584
